GLOBALSTAR M084         
1 38040U 11080A   25360.98663839 -.00000091  00000+0  70563-4 0  9998
2 38040  51.9981 181.5231 0001388  90.9706  74.3711 12.62266892647017
GLOBALSTAR M080         
1 38041U 11080B   25360.70160898 -.00000098  00000+0  30757-4 0  9994
2 38041  52.0028 184.0494 0000687 105.0555 334.3175 12.62265170647103
GLOBALSTAR M082         
1 38042U 11080C   25360.89472492 -.00000088  00000+0  89392-4 0  9999
2 38042  52.0056 138.9430 0000721 118.6779  48.3603 12.62266413647839
GLOBALSTAR M092         
1 38043U 11080D   25360.84952900 -.00000097  00000+0  36866-4 0  9990
2 38043  52.0066 229.4705 0000997  76.1717   5.0744 12.62268771646280
GLOBALSTAR M090         
1 38044U 11080E   25360.41306368 -.00000095  00000+0  51029-4 0  9991
2 38044  52.0104 134.3098 0000841 100.5256 275.5719 12.62265522647896
GLOBALSTAR M086         
1 38045U 11080F   25360.78948189 -.00000085  00000+0  10293-3 0  9991
2 38045  51.9886 133.3750 0001502  59.4129 118.5236 12.62281468647888
GLOBALSTAR M097         
1 39072U 13005A   25360.46188867 -.00000107  00000+0 -16761-4 0  9998
2 39072  52.0061  49.1264 0000341  97.7904 262.3001 12.62267590595099
GLOBALSTAR M093         
1 39073U 13005B   25360.83168797 -.00000100  00000+0  20159-4 0  9998
2 39073  52.0120  41.2830 0000196  56.2849 303.8036 12.62271250595091
